KUIPER-00133            
1 65764U 25217C   26007.32151239  .00004871  00000+0  66665-3 0  9997
2 65764  51.9046 324.4704 0011781 114.9685 245.2503 14.79961191 15657
KUIPER-00139            
1 65765U 25217D   26007.56450216  .00008223  00000+0  63687-3 0  9997
2 65765  51.8863 313.7117 0008852 109.7555 250.4372 15.02180514 15826
KUIPER-00142            
1 65766U 25217E   26008.00003472 -.00044098  00000+0 -49544-2 0  9993
2 65766  51.8967 304.2044 0002196 127.8255 203.2581 14.86393288  3627
KUIPER-00145            
1 65767U 25217F   26008.00003472 -.00053665  00000+0 -65474-2 0  9994
2 65767  51.9001 306.5607 0007236 101.2311 327.1524 14.83086706  5702
KUIPER-00147            
1 65768U 25217G   26008.00003472 -.00045309  00000+0 -55579-2 0  9996
2 65768  51.8983 309.0475 0002928 124.2246 145.4540 14.82798721  4981
KUIPER-00148            
1 65769U 25217H   26007.89965630  .00011896  00000+0  75710-3 0  9998
2 65769  51.8785 306.3463 0010372 135.6765 224.5041 15.09126620 15950
KUIPER-00150            
1 65770U 25217J   26007.25662197 -.00003041  00000+0 -37019-3 0  9997
2 65770  51.9047 322.2559 0000994  85.3149 274.7927 14.79918605 15670
KUIPER-00151            
1 65771U 25217K   26007.53497347  .00003527  00000+0  49118-3 0  9992
2 65771  51.9026 313.5236 0001034  74.7587 285.3489 14.79951785 15821
